{"type":"FeatureCollection","features":[{"type":"Feature","geometry":{"type":"Polygon","coordinates":[[[-1.5622,46.244102],[-1.561945,46.242653],[-1.561728,46.241303],[-1.56186,46.241035],[-1.561576,46.240269],[-1.561331,46.238812],[-1.561025,46.237632],[-1.560423,46.236619],[-1.55912,46.235235],[-1.557721,46.233615],[-1.556715,46.232735],[-1.555518,46.232176],[-1.553744,46.230877],[-1.551068,46.228784],[-1.548335,46.226454],[-1.546825,46.224452],[-1.545232,46.222489],[-1.542416,46.218918],[-1.541857,46.217971],[-1.541466,46.216993],[-1.541099,46.215407],[-1.540964,46.213823],[-1.540564,46.21295],[-1.539434,46.211909],[-1.538253,46.210418],[-1.537176,46.208452],[-1.536593,46.207127],[-1.535921,46.205952],[-1.535029,46.203934],[-1.534542,46.202608],[-1.533506,46.202429],[-1.532691,46.202455],[-1.531501,46.202424],[-1.530526,46.202416],[-1.529546,46.202286],[-1.528696,46.202054],[-1.527364,46.201593],[-1.526226,46.201382],[-1.525351,46.201397],[-1.524072,46.201133],[-1.52357,46.201213],[-1.521416,46.200736],[-1.520234,46.200395],[-1.518932,46.20011],[-1.518001,46.199768],[-1.51657,46.199431],[-1.514887,46.19883],[-1.513325,46.198183],[-1.510293,46.196857],[-1.509054,46.196206],[-1.506364,46.194718],[-1.505055,46.193807],[-1.50454,46.193688],[-1.502154,46.193869],[-1.501385,46.194032],[-1.500278,46.194415],[-1.499133,46.194949],[-1.497562,46.19548],[-1.496148,46.195864],[-1.494846,46.19634],[-1.49388,46.196957],[-1.492586,46.197816],[-1.49168,46.198665],[-1.490588,46.199447],[-1.489266,46.200077],[-1.487045,46.20047],[-1.486237,46.200781],[-1.485421,46.200983],[-1.484591,46.200998],[-1.482721,46.201635],[-1.481146,46.201865],[-1.468455,46.203483],[-1.462042,46.202476],[-1.443343,46.195836],[-1.430844,46.189987],[-1.421864,46.188232],[-1.402742,46.180529],[-1.389565,46.17622],[-1.377902,46.170007],[-1.370597,46.167283],[-1.361936,46.160998],[-1.352874,46.155397],[-1.349599,46.154726],[-1.340522,46.151259],[-1.336882,46.151417],[-1.33057,46.149864],[-1.323796,46.145703],[-1.317662,46.14531],[-1.314255,46.143805],[-1.309643,46.143239],[-1.304935,46.143071],[-1.301339,46.144388],[-1.295629,46.144862],[-1.289317,46.144716],[-1.287023,46.14595],[-1.278875,46.144316],[-1.274049,46.150944],[-1.267776,46.155552],[-1.254667,46.161771],[-1.25417,46.162555],[-1.252717,46.162563],[-1.252834,46.162989],[-1.254188,46.162662],[-1.254759,46.164591],[-1.255631,46.164973],[-1.26235,46.1616],[-1.265883,46.160514],[-1.270963,46.159887],[-1.274905,46.160324],[-1.276704,46.161298],[-1.277752,46.162312],[-1.2775,46.162649],[-1.278366,46.162734],[-1.277258,46.162986],[-1.279041,46.163062],[-1.281615,46.16496],[-1.283082,46.168173],[-1.281936,46.171028],[-1.28931,46.178065],[-1.288053,46.179961],[-1.288718,46.180067],[-1.287467,46.179837],[-1.287115,46.180468],[-1.290479,46.183433],[-1.290837,46.18568],[-1.292534,46.187175],[-1.296009,46.188413],[-1.307752,46.190676],[-1.317638,46.186847],[-1.321147,46.187151],[-1.323182,46.18826],[-1.324278,46.187408],[-1.323792,46.188409],[-1.323124,46.188389],[-1.323466,46.188765],[-1.321859,46.188827],[-1.324001,46.188506],[-1.326582,46.189512],[-1.333718,46.193983],[-1.337615,46.197716],[-1.341037,46.199845],[-1.343954,46.200463],[-1.349831,46.203437],[-1.35376,46.204225],[-1.354719,46.205321],[-1.354546,46.205988],[-1.357972,46.205987],[-1.358422,46.206618],[-1.358346,46.205954],[-1.358947,46.205984],[-1.358562,46.206829],[-1.359322,46.206066],[-1.363572,46.206422],[-1.364756,46.207883],[-1.366055,46.207014],[-1.366669,46.205148],[-1.367365,46.204956],[-1.366957,46.205822],[-1.367362,46.206316],[-1.368828,46.205268],[-1.367632,46.204882],[-1.369534,46.205162],[-1.368078,46.206981],[-1.367077,46.206485],[-1.366294,46.207147],[-1.366968,46.207383],[-1.365402,46.208168],[-1.368179,46.207444],[-1.369158,46.206216],[-1.372537,46.205698],[-1.376914,46.205681],[-1.394206,46.20327],[-1.404654,46.202995],[-1.413241,46.204526],[-1.42536,46.204951],[-1.426802,46.205615],[-1.4269,46.206357],[-1.428996,46.206429],[-1.428011,46.204437],[-1.428429,46.203585],[-1.429811,46.204864],[-1.429311,46.205057],[-1.428228,46.203961],[-1.429793,46.206194],[-1.431009,46.206823],[-1.432498,46.206074],[-1.431469,46.20729],[-1.432335,46.207937],[-1.431795,46.209012],[-1.43489,46.210417],[-1.436038,46.209914],[-1.436897,46.21022],[-1.43699,46.209332],[-1.439338,46.210166],[-1.439516,46.211017],[-1.437303,46.21299],[-1.438491,46.213455],[-1.440708,46.212985],[-1.440902,46.214175],[-1.439032,46.214441],[-1.439538,46.215803],[-1.438577,46.215829],[-1.43771,46.217109],[-1.434119,46.216042],[-1.431952,46.216873],[-1.421404,46.218343],[-1.418363,46.219493],[-1.417051,46.221672],[-1.418516,46.223952],[-1.418042,46.226314],[-1.416946,46.225929],[-1.414752,46.227488],[-1.412052,46.226544],[-1.410753,46.22703],[-1.410818,46.229576],[-1.414625,46.230559],[-1.444891,46.229133],[-1.449941,46.228343],[-1.459448,46.228348],[-1.465854,46.229283],[-1.467453,46.228043],[-1.470033,46.227346],[-1.468453,46.22667],[-1.468133,46.224983],[-1.467014,46.225178],[-1.468067,46.225386],[-1.4688,46.227408],[-1.467359,46.227639],[-1.465867,46.228958],[-1.461711,46.228052],[-1.459016,46.228112],[-1.459193,46.227011],[-1.457725,46.22678],[-1.456232,46.225515],[-1.457157,46.224141],[-1.45696,46.223558],[-1.457618,46.223841],[-1.458297,46.223047],[-1.459646,46.223723],[-1.465552,46.223231],[-1.466113,46.219949],[-1.465206,46.219315],[-1.467839,46.217525],[-1.466794,46.217771],[-1.466946,46.216669],[-1.469752,46.216347],[-1.469574,46.215573],[-1.470728,46.214895],[-1.472653,46.21475],[-1.473676,46.214048],[-1.47926,46.21492],[-1.479444,46.214],[-1.481129,46.212716],[-1.48282,46.212568],[-1.481286,46.210245],[-1.479043,46.210978],[-1.478302,46.21032],[-1.475365,46.209955],[-1.478183,46.21012],[-1.478977,46.210775],[-1.480486,46.209939],[-1.477125,46.207419],[-1.480638,46.209803],[-1.481568,46.209163],[-1.482849,46.209783],[-1.485326,46.207908],[-1.484513,46.210459],[-1.485699,46.208186],[-1.485187,46.207218],[-1.48569,46.206334],[-1.485154,46.204472],[-1.483627,46.204173],[-1.483391,46.203105],[-1.482656,46.202836],[-1.483421,46.202879],[-1.483642,46.202252],[-1.486147,46.202181],[-1.486566,46.203166],[-1.487774,46.203688],[-1.487627,46.206576],[-1.488642,46.207616],[-1.491447,46.207759],[-1.492179,46.207061],[-1.493424,46.20711],[-1.493836,46.207503],[-1.494334,46.207855],[-1.495451,46.208552],[-1.495551,46.208619],[-1.495605,46.208582],[-1.494991,46.20813],[-1.494324,46.207775],[-1.493695,46.207265],[-1.493636,46.206756],[-1.49365,46.206562],[-1.493467,46.206295],[-1.493204,46.20618],[-1.492926,46.206197],[-1.492494,46.205799],[-1.492263,46.205611],[-1.49211,46.205314],[-1.49232,46.205215],[-1.492822,46.205164],[-1.493185,46.20508],[-1.493697,46.205071],[-1.49398,46.205005],[-1.494289,46.205003],[-1.494394,46.204928],[-1.494572,46.204928],[-1.494642,46.204792],[-1.494613,46.204664],[-1.494384,46.204558],[-1.49425,46.204417],[-1.49411,46.204404],[-1.494207,46.204253],[-1.495034,46.203815],[-1.495921,46.203564],[-1.496278,46.203614],[-1.496542,46.203614],[-1.496664,46.203557],[-1.496925,46.203369],[-1.497056,46.203365],[-1.497294,46.203524],[-1.4976,46.203757],[-1.497011,46.20412],[-1.496582,46.20405],[-1.496289,46.204072],[-1.495335,46.204598],[-1.495129,46.20469],[-1.4951,46.204902],[-1.494467,46.205393],[-1.493978,46.205366],[-1.493473,46.205443],[-1.493355,46.205516],[-1.493369,46.205584],[-1.493435,46.205705],[-1.493974,46.206044],[-1.494316,46.206434],[-1.49452,46.206811],[-1.494601,46.207129],[-1.494738,46.20718],[-1.495174,46.207136],[-1.495055,46.207353],[-1.495364,46.207589],[-1.496082,46.208083],[-1.49708,46.207652],[-1.497031,46.207472],[-1.497343,46.207416],[-1.497628,46.207256],[-1.497968,46.206937],[-1.498196,46.206842],[-1.498305,46.206814],[-1.498664,46.206867],[-1.498962,46.206959],[-1.499256,46.206946],[-1.499506,46.207159],[-1.499556,46.207346],[-1.499106,46.207302],[-1.498537,46.207183],[-1.498425,46.207183],[-1.498355,46.207278],[-1.498339,46.207455],[-1.498328,46.207757],[-1.497671,46.207812],[-1.497159,46.208165],[-1.497156,46.208416],[-1.497328,46.208672],[-1.497977,46.209173],[-1.498627,46.209598],[-1.498877,46.209459],[-1.499121,46.209261],[-1.499544,46.209114],[-1.499813,46.209142],[-1.50007,46.208961],[-1.500464,46.208545],[-1.500758,46.20875],[-1.500869,46.208985],[-1.500637,46.209124],[-1.500615,46.209255],[-1.500773,46.209657],[-1.501131,46.209739],[-1.501303,46.209999],[-1.501536,46.210492],[-1.501661,46.210621],[-1.501944,46.210483],[-1.502096,46.210655],[-1.501801,46.211016],[-1.501557,46.211023],[-1.501206,46.210971],[-1.501063,46.210884],[-1.50121,46.210646],[-1.501099,46.210307],[-1.500872,46.2099],[-1.500309,46.209781],[-1.500035,46.209565],[-1.499686,46.209615],[-1.499543,46.209538],[-1.499296,46.209699],[-1.498637,46.210133],[-1.498032,46.20987],[-1.497444,46.209376],[-1.497086,46.209138],[-1.496651,46.208959],[-1.496544,46.2091],[-1.496397,46.209145],[-1.495684,46.208641],[-1.495637,46.208683],[-1.496395,46.209201],[-1.495678,46.209876],[-1.495218,46.210085],[-1.494031,46.210773],[-1.494063,46.210931],[-1.494217,46.211207],[-1.494325,46.211576],[-1.494532,46.211834],[-1.495034,46.212094],[-1.495022,46.212243],[-1.494839,46.212282],[-1.494248,46.212377],[-1.49357,46.212503],[-1.493549,46.212628],[-1.493581,46.212811],[-1.493764,46.212985],[-1.494241,46.21324],[-1.495033,46.213756],[-1.495455,46.213989],[-1.496028,46.214434],[-1.496465,46.214583],[-1.496501,46.214669],[-1.496314,46.214831],[-1.496056,46.214989],[-1.496085,46.215108],[-1.496413,46.215476],[-1.497249,46.215645],[-1.497831,46.215904],[-1.498134,46.215915],[-1.498357,46.216126],[-1.499457,46.216512],[-1.500168,46.216608],[-1.50081,46.21633],[-1.50092,46.215949],[-1.502056,46.215429],[-1.503268,46.215456],[-1.504027,46.215072],[-1.505488,46.214845],[-1.507628,46.213587],[-1.509483,46.212788],[-1.510292,46.212447],[-1.510545,46.212196],[-1.511568,46.210643],[-1.51169,46.210583],[-1.511817,46.210577],[-1.511855,46.210504],[-1.511626,46.210444],[-1.511397,46.21051],[-1.511191,46.210773],[-1.510806,46.210701],[-1.510829,46.210248],[-1.510861,46.209736],[-1.511011,46.209407],[-1.511154,46.209307],[-1.51126,46.209344],[-1.511504,46.209501],[-1.51154,46.209567],[-1.51167,46.209654],[-1.512201,46.209971],[-1.512149,46.210025],[-1.51224,46.21027],[-1.51205,46.210538],[-1.511968,46.210517],[-1.511908,46.21061],[-1.512063,46.21067],[-1.511554,46.211423],[-1.511826,46.211503],[-1.511201,46.212393],[-1.507152,46.214284],[-1.506678,46.214676],[-1.506955,46.21489],[-1.506934,46.214982],[-1.507001,46.215199],[-1.507191,46.215218],[-1.507237,46.215082],[-1.50749,46.215114],[-1.508519,46.214243],[-1.509635,46.214863],[-1.509509,46.215275],[-1.509347,46.21543],[-1.509161,46.215581],[-1.508897,46.215824],[-1.508679,46.215944],[-1.508054,46.215766],[-1.50759,46.215681],[-1.507193,46.215569],[-1.50715,46.215418],[-1.507168,46.215299],[-1.50702,46.215277],[-1.506989,46.215467],[-1.507157,46.215659],[-1.507449,46.215754],[-1.507945,46.215846],[-1.5085,46.215995],[-1.508833,46.215978],[-1.508977,46.215895],[-1.509174,46.21566],[-1.509522,46.215426],[-1.509761,46.214983],[-1.510189,46.214786],[-1.510393,46.214424],[-1.510713,46.214164],[-1.510892,46.214227],[-1.510854,46.214397],[-1.50986,46.215763],[-1.509414,46.216153],[-1.508714,46.216314],[-1.508381,46.216422],[-1.507639,46.21619],[-1.506841,46.216049],[-1.506148,46.215742],[-1.505913,46.215669],[-1.505814,46.215754],[-1.505909,46.216078],[-1.506004,46.216372],[-1.506373,46.216992],[-1.506505,46.217679],[-1.506501,46.218391],[-1.507152,46.218554],[-1.507788,46.218608],[-1.508526,46.21836],[-1.508846,46.218591],[-1.509397,46.218781],[-1.510234,46.219385],[-1.511074,46.220194],[-1.511872,46.22063],[-1.511906,46.220779],[-1.511294,46.220949],[-1.511267,46.221057],[-1.511846,46.221358],[-1.512425,46.221696],[-1.512923,46.222455],[-1.513155,46.222572],[-1.513313,46.22249],[-1.513902,46.222247],[-1.514552,46.22215],[-1.515044,46.222075],[-1.514982,46.221774],[-1.515293,46.221664],[-1.515644,46.221739],[-1.515978,46.221566],[-1.516611,46.22114],[-1.516809,46.220737],[-1.517073,46.220806],[-1.516769,46.221437],[-1.516453,46.22193],[-1.516464,46.222114],[-1.516622,46.222189],[-1.517131,46.222236],[-1.51742,46.22251],[-1.517256,46.222646],[-1.516006,46.222501],[-1.514908,46.22272],[-1.512771,46.223239],[-1.513008,46.22364],[-1.513253,46.223944],[-1.513695,46.225239],[-1.514,46.226034],[-1.514458,46.226265],[-1.514641,46.226515],[-1.514669,46.226824],[-1.514869,46.227159],[-1.514919,46.227626],[-1.514701,46.227857],[-1.514105,46.227699],[-1.513915,46.227719],[-1.513898,46.227855],[-1.51395,46.228022],[-1.514381,46.228993],[-1.514759,46.229577],[-1.514996,46.229674],[-1.51487,46.230043],[-1.515122,46.230433],[-1.515411,46.230561],[-1.515921,46.23053],[-1.516039,46.230894],[-1.515883,46.230949],[-1.515408,46.230955],[-1.514883,46.230976],[-1.514774,46.231047],[-1.514848,46.231816],[-1.515006,46.233278],[-1.515012,46.233981],[-1.515151,46.234341],[-1.515072,46.235045],[-1.514808,46.235076],[-1.514517,46.235108],[-1.514524,46.234305],[-1.514357,46.233522],[-1.513647,46.23198],[-1.513275,46.231976],[-1.512505,46.232063],[-1.512285,46.231252],[-1.51193,46.230702],[-1.511576,46.230254],[-1.511221,46.229999],[-1.510751,46.230207],[-1.510508,46.229764],[-1.509903,46.228484],[-1.509162,46.227325],[-1.508432,46.226696],[-1.506609,46.226605],[-1.506194,46.226584],[-1.505974,46.226747],[-1.505625,46.227045],[-1.504975,46.227567],[-1.504755,46.227557],[-1.504385,46.227771],[-1.504323,46.227941],[-1.504495,46.228406],[-1.504547,46.228698],[-1.504513,46.228938],[-1.504418,46.229038],[-1.503974,46.229198],[-1.50354,46.2295],[-1.503103,46.229901],[-1.502515,46.230299],[-1.501533,46.230898],[-1.500543,46.23151],[-1.500252,46.231823],[-1.500248,46.23212],[-1.500379,46.232512],[-1.500733,46.232956],[-1.501357,46.233509],[-1.501838,46.23411],[-1.501408,46.23427],[-1.501083,46.234283],[-1.50096,46.234647],[-1.500546,46.234633],[-1.499982,46.234708],[-1.499993,46.234847],[-1.500221,46.235271],[-1.499777,46.235385],[-1.499295,46.235545],[-1.498974,46.23523],[-1.498578,46.235041],[-1.497749,46.234919],[-1.49704,46.234971],[-1.496348,46.235022],[-1.494843,46.235034],[-1.494771,46.23424],[-1.494758,46.233524],[-1.494957,46.233307],[-1.494977,46.232938],[-1.494695,46.232438],[-1.493647,46.232074],[-1.493335,46.231736],[-1.493329,46.231394],[-1.493123,46.231136],[-1.49302,46.230767],[-1.49275,46.230216],[-1.49241,46.229781],[-1.491911,46.229443],[-1.49139,46.229238],[-1.490215,46.229021],[-1.487772,46.228554],[-1.486828,46.228568],[-1.486066,46.228637],[-1.485,46.228411],[-1.483657,46.228504],[-1.48132,46.228808],[-1.480941,46.229799],[-1.480133,46.230333],[-1.478833,46.230576],[-1.476787,46.231844],[-1.47538,46.232363],[-1.47464,46.232849],[-1.474891,46.233562],[-1.475355,46.234248],[-1.476284,46.235006],[-1.477495,46.236085],[-1.477375,46.236712],[-1.4782,46.237069],[-1.478877,46.23787],[-1.481342,46.239653],[-1.482251,46.241529],[-1.482525,46.243156],[-1.482039,46.243139],[-1.482109,46.243882],[-1.481711,46.245637],[-1.48252,46.24729],[-1.483179,46.247737],[-1.484797,46.24797],[-1.486278,46.248529],[-1.487796,46.249312],[-1.488493,46.250104],[-1.488866,46.251205],[-1.489286,46.25218],[-1.489249,46.252955],[-1.489745,46.253297],[-1.491525,46.253649],[-1.493328,46.254285],[-1.494674,46.255905],[-1.500825,46.257644],[-1.502092,46.257079],[-1.504243,46.256641],[-1.508311,46.257033],[-1.511502,46.2577],[-1.513952,46.257262],[-1.51732,46.255544],[-1.519217,46.254],[-1.521297,46.252313],[-1.523724,46.250717],[-1.526233,46.249191],[-1.528915,46.247739],[-1.531059,46.246698],[-1.534885,46.245018],[-1.538007,46.24388],[-1.541212,46.242825],[-1.542054,46.242906],[-1.542821,46.242871],[-1.543646,46.242813],[-1.544289,46.242772],[-1.545269,46.242767],[-1.546025,46.242839],[-1.546827,46.242804],[-1.54851,46.242861],[-1.550246,46.243021],[-1.550492,46.243146],[-1.55086,46.243188],[-1.553583,46.24358],[-1.557047,46.244341],[-1.558176,46.244703],[-1.560274,46.244893],[-1.561987,46.244655],[-1.5622,46.244102]]]},"properties":{"place_id":287251788,"osm_type":"relation","osm_id":3066508,"place_rank":17,"category":"place","type":"island","importance":0.49827650830277187,"addresstype":"island","name":"Île de Ré","display_name":"Île de Ré, Le Bois-Plage-en-Ré, La Rochelle, Charente-Maritime, Nouvelle-Aquitaine, France métropolitaine, 17580, France"},"bbox":[-1.5626797,46.1430713,-1.2527168,46.258008]}]}